{
 "generated_at": "2026-06-11T23:47:41Z",
 "sources": [
  {
   "name": "CelesTrak",
   "url": "https://celestrak.org/NORAD/elements/",
   "license": "frei verfügbar; Attribution. Ursprünglich USSPACECOM/Space-Track."
  },
  {
   "name": "GCAT (J. McDowell, planet4589.org)",
   "url": "https://planet4589.org/space/gcat/",
   "license": "CC-BY 4.0"
  }
 ],
 "satellites": [
  {
   "norad": 60541,
   "name": "UMBRA-09",
   "intl": "2024-149CB",
   "group": "sar",
   "gcat": {
    "class": "B",
    "category": "IMG-R",
    "owner": "UMBRA",
    "state": "US"
   },
   "omm": {
    "OBJECT_NAME": "UMBRA-09",
    "OBJECT_ID": "2024-149CB",
    "EPOCH": "2026-06-11T04:48:50.931936",
    "MEAN_MOTION": 15.17858533,
    "ECCENTRICITY": 0.0000458,
    "INCLINATION": 97.6973,
    "RA_OF_ASC_NODE": 249.3043,
    "ARG_OF_PERICENTER": 301.5403,
    "MEAN_ANOMALY": 58.5786,
    "EPHEMERIS_TYPE": 0,
    "CLASSIFICATION_TYPE": "U",
    "NORAD_CAT_ID": 60541,
    "ELEMENT_SET_NO": 999,
    "REV_AT_EPOCH": 9981,
    "BSTAR": 0.00074677,
    "MEAN_MOTION_DOT": 0.00015072,
    "MEAN_MOTION_DDOT": 0
   }
  },
  {
   "norad": 60547,
   "name": "UMBRA-10",
   "intl": "2024-149CH",
   "group": "sar",
   "gcat": {
    "class": "B",
    "category": "IMG-R",
    "owner": "UMBRA",
    "state": "US"
   },
   "omm": {
    "OBJECT_NAME": "UMBRA-10",
    "OBJECT_ID": "2024-149CH",
    "EPOCH": "2026-06-11T04:48:12.529728",
    "MEAN_MOTION": 15.17860045,
    "ECCENTRICITY": 0.000084,
    "INCLINATION": 97.6975,
    "RA_OF_ASC_NODE": 249.3315,
    "ARG_OF_PERICENTER": 65.5458,
    "MEAN_ANOMALY": 294.5863,
    "EPHEMERIS_TYPE": 0,
    "CLASSIFICATION_TYPE": "U",
    "NORAD_CAT_ID": 60547,
    "ELEMENT_SET_NO": 999,
    "REV_AT_EPOCH": 9982,
    "BSTAR": 0.00069134,
    "MEAN_MOTION_DOT": 0.00013946,
    "MEAN_MOTION_DDOT": 0
   }
  },
  {
   "norad": 66748,
   "name": "UMBRA-11",
   "intl": "2025-276CL",
   "group": "sar",
   "gcat": {
    "class": "B",
    "category": "IMG-R",
    "owner": "UMBRA",
    "state": "US"
   },
   "omm": {
    "OBJECT_NAME": "UMBRA-11",
    "OBJECT_ID": "2025-276CL",
    "EPOCH": "2026-06-11T16:26:48.256800",
    "MEAN_MOTION": 15.26497606,
    "ECCENTRICITY": 0.0001448,
    "INCLINATION": 97.4205,
    "RA_OF_ASC_NODE": 237.35,
    "ARG_OF_PERICENTER": 26.8597,
    "MEAN_ANOMALY": 333.2716,
    "EPHEMERIS_TYPE": 0,
    "CLASSIFICATION_TYPE": "U",
    "NORAD_CAT_ID": 66748,
    "ELEMENT_SET_NO": 999,
    "REV_AT_EPOCH": 2965,
    "BSTAR": 0.00080229,
    "MEAN_MOTION_DOT": 0.00020906,
    "MEAN_MOTION_DDOT": 0
   }
  },
  {
   "norad": 67371,
   "name": "UMBRA-12",
   "intl": "2026-004J",
   "group": "sar",
   "gcat": {
    "class": "B",
    "category": "IMG-R",
    "owner": "UMBRA",
    "state": "US"
   },
   "omm": {
    "OBJECT_NAME": "UMBRA-12",
    "OBJECT_ID": "2026-004J",
    "EPOCH": "2026-06-11T14:20:51.235872",
    "MEAN_MOTION": 14.89272067,
    "ECCENTRICITY": 0.0007213,
    "INCLINATION": 97.8007,
    "RA_OF_ASC_NODE": 161.4451,
    "ARG_OF_PERICENTER": 138.5765,
    "MEAN_ANOMALY": 221.6,
    "EPHEMERIS_TYPE": 0,
    "CLASSIFICATION_TYPE": "U",
    "NORAD_CAT_ID": 67371,
    "ELEMENT_SET_NO": 999,
    "REV_AT_EPOCH": 2247,
    "BSTAR": 0.00044056,
    "MEAN_MOTION_DOT": 0.0000412,
    "MEAN_MOTION_DDOT": 0
   }
  },
  {
   "norad": 39160,
   "name": "VNREDSAT 1",
   "intl": "2013-021B",
   "group": "resource",
   "gcat": {
    "class": "C",
    "category": "IMG",
    "owner": "VAST",
    "state": "VN"
   },
   "omm": {
    "OBJECT_NAME": "VNREDSAT 1",
    "OBJECT_ID": "2013-021B",
    "EPOCH": "2026-06-11T16:37:33.383136",
    "MEAN_MOTION": 14.64851396,
    "ECCENTRICITY": 0.0001662,
    "INCLINATION": 97.9086,
    "RA_OF_ASC_NODE": 216.3199,
    "ARG_OF_PERICENTER": 89.0626,
    "MEAN_ANOMALY": 271.0768,
    "EPHEMERIS_TYPE": 0,
    "CLASSIFICATION_TYPE": "U",
    "NORAD_CAT_ID": 39160,
    "ELEMENT_SET_NO": 999,
    "REV_AT_EPOCH": 69948,
    "BSTAR": 0.00010308,
    "MEAN_MOTION_DOT": 0.00000505,
    "MEAN_MOTION_DDOT": 0
   }
  },
  {
   "norad": 32060,
   "name": "WORLDVIEW-1 (WV-1)",
   "intl": "2007-041A",
   "group": "resource",
   "gcat": {
    "class": "B",
    "category": "IMG",
    "owner": "DGLO",
    "state": "US"
   },
   "omm": {
    "OBJECT_NAME": "WORLDVIEW-1 (WV-1)",
    "OBJECT_ID": "2007-041A",
    "EPOCH": "2026-06-11T15:30:39.347136",
    "MEAN_MOTION": 15.24205668,
    "ECCENTRICITY": 0.0002767,
    "INCLINATION": 97.3865,
    "RA_OF_ASC_NODE": 282.4701,
    "ARG_OF_PERICENTER": 36.7309,
    "MEAN_ANOMALY": 323.4118,
    "EPHEMERIS_TYPE": 0,
    "CLASSIFICATION_TYPE": "U",
    "NORAD_CAT_ID": 32060,
    "ELEMENT_SET_NO": 999,
    "REV_AT_EPOCH": 4203,
    "BSTAR": 0.0002232,
    "MEAN_MOTION_DOT": 0.00005369,
    "MEAN_MOTION_DDOT": 0
   }
  },
  {
   "norad": 35946,
   "name": "WORLDVIEW-2 (WV-2)",
   "intl": "2009-055A",
   "group": "resource",
   "gcat": {
    "class": "B",
    "category": "IMG",
    "owner": "DGLO",
    "state": "US"
   },
   "omm": {
    "OBJECT_NAME": "WORLDVIEW-2 (WV-2)",
    "OBJECT_ID": "2009-055A",
    "EPOCH": "2026-06-11T15:59:45.327840",
    "MEAN_MOTION": 14.37897773,
    "ECCENTRICITY": 0.0003406,
    "INCLINATION": 98.4736,
    "RA_OF_ASC_NODE": 236.192,
    "ARG_OF_PERICENTER": 227.593,
    "MEAN_ANOMALY": 132.497,
    "EPHEMERIS_TYPE": 0,
    "CLASSIFICATION_TYPE": "U",
    "NORAD_CAT_ID": 35946,
    "ELEMENT_SET_NO": 999,
    "REV_AT_EPOCH": 87485,
    "BSTAR": 0.00004134,
    "MEAN_MOTION_DOT": 8.1e-7,
    "MEAN_MOTION_DDOT": 0
   }
  },
  {
   "norad": 40115,
   "name": "WORLDVIEW-3 (WV-3)",
   "intl": "2014-048A",
   "group": "resource",
   "gcat": {
    "class": "B",
    "category": "IMG",
    "owner": "DGLO",
    "state": "US"
   },
   "omm": {
    "OBJECT_NAME": "WORLDVIEW-3 (WV-3)",
    "OBJECT_ID": "2014-048A",
    "EPOCH": "2026-06-11T15:24:42.846048",
    "MEAN_MOTION": 14.85012907,
    "ECCENTRICITY": 0.0001423,
    "INCLINATION": 97.8566,
    "RA_OF_ASC_NODE": 237.5515,
    "ARG_OF_PERICENTER": 34.2805,
    "MEAN_ANOMALY": 325.8502,
    "EPHEMERIS_TYPE": 0,
    "CLASSIFICATION_TYPE": "U",
    "NORAD_CAT_ID": 40115,
    "ELEMENT_SET_NO": 999,
    "REV_AT_EPOCH": 64108,
    "BSTAR": 0.000092025,
    "MEAN_MOTION_DOT": 0.00000732,
    "MEAN_MOTION_DDOT": 0
   }
  },
  {
   "norad": 36834,
   "name": "YAOGAN-10",
   "intl": "2010-038A",
   "group": "resource",
   "gcat": {
    "class": null,
    "category": null,
    "owner": null,
    "state": null
   },
   "omm": {
    "OBJECT_NAME": "YAOGAN-10",
    "OBJECT_ID": "2010-038A",
    "EPOCH": "2026-06-11T18:13:44.541984",
    "MEAN_MOTION": 14.85331534,
    "ECCENTRICITY": 0.000164,
    "INCLINATION": 97.8982,
    "RA_OF_ASC_NODE": 186.207,
    "ARG_OF_PERICENTER": 89.5233,
    "MEAN_ANOMALY": 330.1964,
    "EPHEMERIS_TYPE": 0,
    "CLASSIFICATION_TYPE": "U",
    "NORAD_CAT_ID": 36834,
    "ELEMENT_SET_NO": 999,
    "REV_AT_EPOCH": 85640,
    "BSTAR": 0.00017735,
    "MEAN_MOTION_DOT": 0.00001471,
    "MEAN_MOTION_DDOT": 0
   }
  },
  {
   "norad": 40143,
   "name": "YAOGAN-21",
   "intl": "2014-053A",
   "group": "resource",
   "gcat": {
    "class": "D",
    "category": "IMG",
    "owner": "ZZB",
    "state": "CN"
   },
   "omm": {
    "OBJECT_NAME": "YAOGAN-21",
    "OBJECT_ID": "2014-053A",
    "EPOCH": "2026-06-11T17:18:34.837920",
    "MEAN_MOTION": 15.26291343,
    "ECCENTRICITY": 0.0009845,
    "INCLINATION": 97.148,
    "RA_OF_ASC_NODE": 203.1919,
    "ARG_OF_PERICENTER": 109.4222,
    "MEAN_ANOMALY": 250.8082,
    "EPHEMERIS_TYPE": 0,
    "CLASSIFICATION_TYPE": "U",
    "NORAD_CAT_ID": 40143,
    "ELEMENT_SET_NO": 999,
    "REV_AT_EPOCH": 65412,
    "BSTAR": 0.0002454,
    "MEAN_MOTION_DOT": 0.00006305,
    "MEAN_MOTION_DDOT": 0
   }
  }
 ]
}
